{
  "type": "FeatureCollection",
  "features": [
    {
      "type": "Feature",
      "properties": {
        "norad_id": 28054,
        "name": "DMSP 5D-3 F16 (USA 172)",
        "group": "weather",
        "lat": -61.51757300362359,
        "lon": 163.91954823758536,
        "alt_km": 851.2538068805388,
        "timestamp": "2025-12-09T11:33:54.441939+00:00",
        "meta_object_name": "DMSP 5D-3 F16 (USA 172)",
        "meta_object_id": "2003-048A",
        "meta_epoch": "2025-12-09T04:00:12.160224",
        "meta_mean_motion": 14.14422171,
        "meta_eccentricity": 0.0006629,
        "meta_inclination": 99.0048,
        "meta_ra_of_asc_node": 0.5956,
        "meta_arg_of_pericenter": 331.9639,
        "meta_mean_anomaly": 107.4864,
        "meta_ephemeris_type": 0,
        "meta_classification_type": "U",
        "meta_norad_cat_id": 28054,
        "meta_element_set_no": 999,
        "meta_rev_at_epoch": 14262,
        "meta_bstar": 0.00012821,
        "meta_mean_motion_dot": 2e-06,
        "meta_mean_motion_ddot": 0,
        "tle_line1": "1 28054U 03048A   25343.16680741  .00000200  00000+0  12821-3 0  9992",
        "tle_line2": "2 28054  99.0048   0.5956 0006629 331.9639 107.4864 14.14422171142625"
      },
      "geometry": {
        "type": "Point",
        "coordinates": [
          163.91954823758536,
          -61.51757300362359
        ]
      }
    },
    {
      "type": "Feature",
      "properties": {
        "norad_id": 28912,
        "name": "METEOSAT-9 (MSG-2)",
        "group": "weather",
        "lat": -7.86743985053437,
        "lon": -62.671798950748915,
        "alt_km": 35776.21275100855,
        "timestamp": "2025-12-09T11:33:54.442000+00:00",
        "meta_object_name": "METEOSAT-9 (MSG-2)",
        "meta_object_id": "2005-049B",
        "meta_epoch": "2025-12-08T20:40:05.248704",
        "meta_mean_motion": 1.00274262,
        "meta_eccentricity": 0.000384,
        "meta_inclination": 8.931,
        "meta_ra_of_asc_node": 56.0124,
        "meta_arg_of_pericenter": 190.0622,
        "meta_mean_anomaly": 187.4345,
        "meta_ephemeris_type": 0,
        "meta_classification_type": "U",
        "meta_norad_cat_id": 28912,
        "meta_element_set_no": 999,
        "meta_rev_at_epoch": 509,
        "meta_bstar": 0,
        "meta_mean_motion_dot": 1.23e-06,
        "meta_mean_motion_ddot": 0,
        "tle_line1": "1 28912U 05049B   25342.86117186  .00000123  00000+0  00000+0 0  9998",
        "tle_line2": "2 28912   8.9310  56.0124 0003840 190.0622 187.4345  1.00274262  5098"
      },
      "geometry": {
        "type": "Point",
        "coordinates": [
          -62.671798950748915,
          -7.86743985053437
        ]
      }
    },
    {
      "type": "Feature",
      "properties": {
        "norad_id": 29522,
        "name": "DMSP 5D-3 F17 (USA 191)",
        "group": "weather",
        "lat": 2.40720649292694,
        "lon": 169.30929832094282,
        "alt_km": 841.5833614954718,
        "timestamp": "2025-12-09T11:33:54.442017+00:00",
        "meta_object_name": "DMSP 5D-3 F17 (USA 191)",
        "meta_object_id": "2006-050A",
        "meta_epoch": "2025-12-09T03:56:22.689600",
        "meta_mean_motion": 14.14917062,
        "meta_eccentricity": 0.000928,
        "meta_inclination": 98.7393,
        "meta_ra_of_asc_node": 348.6277,
        "meta_arg_of_pericenter": 235.9376,
        "meta_mean_anomaly": 124.0918,
        "meta_ephemeris_type": 0,
        "meta_classification_type": "U",
        "meta_norad_cat_id": 29522,
        "meta_element_set_no": 999,
        "meta_rev_at_epoch": 98554,
        "meta_bstar": 0.00015549,
        "meta_mean_motion_dot": 2.57e-06,
        "meta_mean_motion_ddot": 0,
        "tle_line1": "1 29522U 06050A   25343.16415150  .00000257  00000+0  15549-3 0  9991",
        "tle_line2": "2 29522  98.7393 348.6277 0009280 235.9376 124.0918 14.14917062985543"
      },
      "geometry": {
        "type": "Point",
        "coordinates": [
          169.30929832094282,
          2.40720649292694
        ]
      }
    },
    {
      "type": "Feature",
      "properties": {
        "norad_id": 32958,
        "name": "FENGYUN 3A",
        "group": "weather",
        "lat": -17.57574221404735,
        "lon": 100.30724660924398,
        "alt_km": 835.0774689978589,
        "timestamp": "2025-12-09T11:33:54.442031+00:00",
        "meta_object_name": "FENGYUN 3A",
        "meta_object_id": "2008-026A",
        "meta_epoch": "2025-12-08T19:24:39.976992",
        "meta_mean_motion": 14.19512827,
        "meta_eccentricity": 0.00080792,
        "meta_inclination": 98.6693,
        "meta_ra_of_asc_node": 282.4185,
        "meta_arg_of_pericenter": 322.7735,
        "meta_mean_anomaly": 37.2881,
        "meta_ephemeris_type": 0,
        "meta_classification_type": "U",
        "meta_norad_cat_id": 32958,
        "meta_element_set_no": 999,
        "meta_rev_at_epoch": 90839,
        "meta_bstar": 0.00014393123,
        "meta_mean_motion_dot": 2.6e-06,
        "meta_mean_motion_ddot": 0,
        "tle_line1": "1 32958U 08026A   25342.80879603  .00000260  00000+0  14393-3 0  9990",
        "tle_line2": "2 32958  98.6693 282.4185 0008079 322.7735  37.2881 14.19512827908391"
      },
      "geometry": {
        "type": "Point",
        "coordinates": [
          100.30724660924398,
          -17.57574221404735
        ]
      }
    },
    {
      "type": "Feature",
      "properties": {
        "norad_id": 35491,
        "name": "GOES 14",
        "group": "weather",
        "lat": 1.0192439122269006,
        "lon": 143.59522580663787,
        "alt_km": 35787.5758006878,
        "timestamp": "2025-12-09T11:33:54.442045+00:00",
        "meta_object_name": "GOES 14",
        "meta_object_id": "2009-033A",
        "meta_epoch": "2025-12-09T04:30:43.606080",
        "meta_mean_motion": 1.00273167,
        "meta_eccentricity": 0.0004048,
        "meta_inclination": 1.1903,
        "meta_ra_of_asc_node": 85.4457,
        "meta_arg_of_pericenter": 154.7697,
        "meta_mean_anomaly": 157.3472,
        "meta_ephemeris_type": 0,
        "meta_classification_type": "U",
        "meta_norad_cat_id": 35491,
        "meta_element_set_no": 999,
        "meta_rev_at_epoch": 468,
        "meta_bstar": 0,
        "meta_mean_motion_dot": -6.6e-07,
        "meta_mean_motion_ddot": 0,
        "tle_line1": "1 35491U 09033A   25343.18800470 -.00000066  00000+0  00000+0 0  9993",
        "tle_line2": "2 35491   1.1903  85.4457 0004048 154.7697 157.3472  1.00273167  4680"
      },
      "geometry": {
        "type": "Point",
        "coordinates": [
          143.59522580663787,
          1.0192439122269006
        ]
      }
    },
    {
      "type": "Feature",
      "properties": {
        "norad_id": 35951,
        "name": "DMSP 5D-3 F18 (USA 210)",
        "group": "weather",
        "lat": 45.80694236192021,
        "lon": -49.357912746476025,
        "alt_km": 831.127231282403,
        "timestamp": "2025-12-09T11:33:54.442058+00:00",
        "meta_object_name": "DMSP 5D-3 F18 (USA 210)",
        "meta_object_id": "2009-057A",
        "meta_epoch": "2025-12-09T02:51:34.554816",
        "meta_mean_motion": 14.14765606,
        "meta_eccentricity": 0.0012106,
        "meta_inclination": 98.8831,
        "meta_ra_of_asc_node": 319.5381,
        "meta_arg_of_pericenter": 72.1975,
        "meta_mean_anomaly": 288.0518,
        "meta_ephemeris_type": 0,
        "meta_classification_type": "U",
        "meta_norad_cat_id": 35951,
        "meta_element_set_no": 999,
        "meta_rev_at_epoch": 83271,
        "meta_bstar": 0.00022743,
        "meta_mean_motion_dot": 3.94e-06,
        "meta_mean_motion_ddot": 0,
        "tle_line1": "1 35951U 09057A   25343.11914994  .00000394  00000+0  22743-3 0  9995",
        "tle_line2": "2 35951  98.8831 319.5381 0012106  72.1975 288.0518 14.14765606832716"
      },
      "geometry": {
        "type": "Point",
        "coordinates": [
          -49.357912746476025,
          45.80694236192021
        ]
      }
    },
    {
      "type": "Feature",
      "properties": {
        "norad_id": 36411,
        "name": "EWS-G2 (GOES 15)",
        "group": "weather",
        "lat": -0.6035967110894689,
        "lon": -46.56526146529863,
        "alt_km": 35772.214084676016,
        "timestamp": "2025-12-09T11:33:54.442072+00:00",
        "meta_object_name": "EWS-G2 (GOES 15)",
        "meta_object_id": "2010-008A",
        "meta_epoch": "2025-12-09T03:35:36.436992",
        "meta_mean_motion": 1.00268895,
        "meta_eccentricity": 0.0005941,
        "meta_inclination": 0.8051,
        "meta_ra_of_asc_node": 86.0557,
        "meta_arg_of_pericenter": 173.1984,
        "meta_mean_anomaly": 294.2311,
        "meta_ephemeris_type": 0,
        "meta_classification_type": "U",
        "meta_norad_cat_id": 36411,
        "meta_element_set_no": 999,
        "meta_rev_at_epoch": 5773,
        "meta_bstar": 0,
        "meta_mean_motion_dot": 4e-07,
        "meta_mean_motion_ddot": 0,
        "tle_line1": "1 36411U 10008A   25343.14972728  .00000040  00000+0  00000+0 0  9993",
        "tle_line2": "2 36411   0.8051  86.0557 0005941 173.1984 294.2311  1.00268895 57737"
      },
      "geometry": {
        "type": "Point",
        "coordinates": [
          -46.56526146529863,
          -0.6035967110894689
        ]
      }
    }
  ]
}